ONEWEB-0134             
1 47280U 20100Y   23229.66382134  .00000232  00000+0  61087-3 0  9996
2 47280  87.9025 196.2784 0002314  89.9562 270.1831 13.12444971129011
ONEWEB-0135             
1 47281U 20100Z   23228.64098363 -.00000433  00000+0 -12382-2 0  9990
2 47281  87.9024 196.4831 0002186  86.4098 273.7280 13.12441215128901
ONEWEB-0136             
1 47282U 20100AA  23228.66216953  .00000335  00000+0  89561-3 0  9993
2 47282  87.9036 196.5181 0002636  91.6520 268.4910 13.12443060128835
ONEWEB-0137             
1 47283U 20100AB  23229.38428738 -.00000025  00000+0 -10569-3 0  9990
2 47283  87.9022 196.3421 0002124  80.7139 279.4229 13.12439508128830
ONEWEB-0138             
1 47284U 20100AC  23228.44616284  .00000452  00000+0  12224-2 0  9993
2 47284  87.9021 196.5377 0002165  84.8260 275.3116 13.12443698128797
ONEWEB-0139             
1 47285U 20100AD  23229.40971390 -.00000291  00000+0 -84361-3 0  9998
2 47285  87.9024 196.3733 0002165  87.3477 272.7899 13.12442823128993
ONEWEB-0140             
1 47286U 20100AE  23229.65958900  .00000324  00000+0  86593-3 0  9992
2 47286  87.9033 196.2731 0002276  87.1807 272.9582 13.12445141128985
ONEWEB-0141             
1 47287U 20100AF  23229.45311490  .00000658  00000+0  17924-2 0  9999
2 47287  87.9023 196.3113 0001883  73.8279 286.3057 13.12441649128950
